[
    {
        "Altitude(m)": 705009.9364612825,
        "Argument of Periapsis(deg)": 0.0034170363559881197,
        "Eccentricity": 0.0,
        "Inclination(deg)": 45.0,
        "Latitude(deg)": 34.27494102685873,
        "Longitude(deg)": -57.53458791009511,
        "Mean Anomaly(deg)": 52.55086499424424,
        "RAAN(deg)": -0.00322558243746118,
        "Satellite Name": "Constellation 1 3",
        "Satellite Number": 3,
        "Semi-Major Axis(m)": 7083131.272910544,
        "Time(s)": 57
    },
    {
        "Altitude(m)": 705015.9104768031,
        "Argument of Periapsis(deg)": 0.003476984362233526,
        "Eccentricity": 0.0,
        "Inclination(deg)": 45.0,
        "Latitude(deg)": 34.30660899027008,
        "Longitude(deg)": -57.47602571732509,
        "Mean Anomaly(deg)": 52.61156613449415,
        "RAAN(deg)": -0.0032821716030306744,
        "Satellite Name": "Constellation 1 3",
        "Satellite Number": 3,
        "Semi-Major Axis(m)": 7083131.272910544,
        "Time(s)": 58
    },
    {
        "Altitude(m)": 705021.8837967741,
        "Argument of Periapsis(deg)": 0.003536932368478932,
        "Eccentricity": 0.0,
        "Inclination(deg)": 45.0,
        "Latitude(deg)": 34.33824471305546,
        "Longitude(deg)": -57.41741667782485,
        "Mean Anomaly(deg)": 52.67226727474405,
        "RAAN(deg)": -0.003338760768600169,
        "Satellite Name": "Constellation 1 3",
        "Satellite Number": 3,
        "Semi-Major Axis(m)": 7083131.272910544,
        "Time(s)": 59
    },
    {
        "Altitude(m)": 705027.8563828332,
        "Argument of Periapsis(deg)": 0.003596880374724337,
        "Eccentricity": 0.0,
        "Inclination(deg)": 45.0,
        "Latitude(deg)": 34.369848133560915,
        "Longitude(deg)": -57.35876041219751,
        "Mean Anomaly(deg)": 52.73296841499394,
        "RAAN(deg)": -0.0033953499341696633,
        "Satellite Name": "Constellation 1 3",
        "Satellite Number": 3,
        "Semi-Major Axis(m)": 7083131.272910544,
        "Time(s)": 60
    },
    {
        "Altitude(m)": 705033.828196637,
        "Argument of Periapsis(deg)": 0.0036568283809697427,
        "Eccentricity": 0.0,
        "Inclination(deg)": 45.0,
        "Latitude(deg)": 34.40141919006478,
        "Longitude(deg)": -57.300057045513284,
        "Mean Anomaly(deg)": 52.793669555243845,
        "RAAN(deg)": -0.0034519390997391573,
        "Satellite Name": "Constellation 1 3",
        "Satellite Number": 3,
        "Semi-Major Axis(m)": 7083131.272910544,
        "Time(s)": 61
    },
    {
        "Altitude(m)": 705039.7991998686,
        "Argument of Periapsis(deg)": 0.003716776387215149,
        "Eccentricity": 0.0,
        "Inclination(deg)": 45.0,
        "Latitude(deg)": 34.4329578207786,
        "Longitude(deg)": -57.241306534923005,
        "Mean Anomaly(deg)": 52.85437069549374,
        "RAAN(deg)": -0.003508528265308652,
        "Satellite Name": "Constellation 1 3",
        "Satellite Number": 3,
        "Semi-Major Axis(m)": 7083131.272910544,
        "Time(s)": 62
    },
    {
        "Altitude(m)": 705045.7693542265,
        "Argument of Periapsis(deg)": 0.003776724393460554,
        "Eccentricity": 0.0,
        "Inclination(deg)": 45.0,
        "Latitude(deg)": 34.464463963846995,
        "Longitude(deg)": -57.182508837756295,
        "Mean Anomaly(deg)": 52.91507183574364,
        "RAAN(deg)": -0.0035651174308781466,
        "Satellite Name": "Constellation 1 3",
        "Satellite Number": 3,
        "Semi-Major Axis(m)": 7083131.272910544,
        "Time(s)": 63
    },
    {
        "Altitude(m)": 705051.7386214223,
        "Argument of Periapsis(deg)": 0.003836672399705959,
        "Eccentricity": 0.0,
        "Inclination(deg)": 45.0,
        "Latitude(deg)": 34.4959375573478,
        "Longitude(deg)": -57.123663911522605,
        "Mean Anomaly(deg)": 52.97577297599354,
        "RAAN(deg)": -0.0036217065964476406,
        "Satellite Name": "Constellation 1 3",
        "Satellite Number": 3,
        "Semi-Major Axis(m)": 7083131.272910544,
        "Time(s)": 64
    },
    {
        "Altitude(m)": 705057.7069632007,
        "Argument of Periapsis(deg)": 0.003896620405951365,
        "Eccentricity": 0.0,
        "Inclination(deg)": 45.0,
        "Latitude(deg)": 34.52737853929229,
        "Longitude(deg)": -57.0647717139125,
        "Mean Anomaly(deg)": 53.03647411624344,
        "RAAN(deg)": -0.003678295762017135,
        "Satellite Name": "Constellation 1 3",
        "Satellite Number": 3,
        "Semi-Major Axis(m)": 7083131.272910544,
        "Time(s)": 65
    },
    {
        "Altitude(m)": 705063.6743413248,
        "Argument of Periapsis(deg)": 0.003956568412196771,
        "Eccentricity": 0.0,
        "Inclination(deg)": 45.0,
        "Latitude(deg)": 34.55878684762522,
        "Longitude(deg)": -57.0058322027988,
        "Mean Anomaly(deg)": 53.09717525649334,
        "RAAN(deg)": -0.00373488492758663,
        "Satellite Name": "Constellation 1 3",
        "Satellite Number": 3,
        "Semi-Major Axis(m)": 7083131.272910544,
        "Time(s)": 66
    },
    {
        "Altitude(m)": 705069.6407175714,
        "Argument of Periapsis(deg)": 0.004016516418442176,
        "Eccentricity": 0.0,
        "Inclination(deg)": 45.0,
        "Latitude(deg)": 34.59016242022495,
        "Longitude(deg)": -56.94684550433459,
        "Mean Anomaly(deg)": 53.15787639674324,
        "RAAN(deg)": -0.003791474093156124,
        "Satellite Name": "Constellation 1 3",
        "Satellite Number": 3,
        "Semi-Major Axis(m)": 7083131.272910544,
        "Time(s)": 67
    },
    {
        "Altitude(m)": 705075.6060537423,
        "Argument of Periapsis(deg)": 0.004076464424687581,
        "Eccentricity": 0.0,
        "Inclination(deg)": 45.0,
        "Latitude(deg)": 34.62150519490402,
        "Longitude(deg)": -56.8878112405669,
        "Mean Anomaly(deg)": 53.21857753699314,
        "RAAN(deg)": -0.0038480632587256183,
        "Satellite Name": "Constellation 1 3",
        "Satellite Number": 3,
        "Semi-Major Axis(m)": 7083131.272910544,
        "Time(s)": 68
    },
    {
        "Altitude(m)": 705081.5703116669,
        "Argument of Periapsis(deg)": 0.004136412430932987,
        "Eccentricity": 0.0,
        "Inclination(deg)": 45.0,
        "Latitude(deg)": 34.65281510940858,
        "Longitude(deg)": -56.82872953801914,
        "Mean Anomaly(deg)": 53.279278677243035,
        "RAAN(deg)": -0.0039046524242951127,
        "Satellite Name": "Constellation 1 3",
        "Satellite Number": 3,
        "Semi-Major Axis(m)": 7083131.272910544,
        "Time(s)": 69
    },
    {
        "Altitude(m)": 705087.533453185,
        "Argument of Periapsis(deg)": 0.004196360437178394,
        "Eccentricity": 0.0,
        "Inclination(deg)": 45.0,
        "Latitude(deg)": 34.68409210141907,
        "Longitude(deg)": -56.76960035530479,
        "Mean Anomaly(deg)": 53.33997981749293,
        "RAAN(deg)": -0.003961241589864607,
        "Satellite Name": "Constellation 1 3",
        "Satellite Number": 3,
        "Semi-Major Axis(m)": 7083131.272910544,
        "Time(s)": 70
    },
    {
        "Altitude(m)": 705093.4954401632,
        "Argument of Periapsis(deg)": 0.004256308443423799,
        "Eccentricity": 0.0,
        "Inclination(deg)": 45.0,
        "Latitude(deg)": 34.71533610855022,
        "Longitude(deg)": -56.71042365122546,
        "Mean Anomaly(deg)": 53.40068095774283,
        "RAAN(deg)": -0.004017830755434102,
        "Satellite Name": "Constellation 1 3",
        "Satellite Number": 3,
        "Semi-Major Axis(m)": 7083131.272910544,
        "Time(s)": 71
    },
    {
        "Altitude(m)": 705099.4562344939,
        "Argument of Periapsis(deg)": 0.004316256449669204,
        "Eccentricity": 0.0,
        "Inclination(deg)": 45.0,
        "Latitude(deg)": 34.746547068351184,
        "Longitude(deg)": -56.651199384772056,
        "Mean Anomaly(deg)": 53.46138209799273,
        "RAAN(deg)": -0.004074419921003596,
        "Satellite Name": "Constellation 1 3",
        "Satellite Number": 3,
        "Semi-Major Axis(m)": 7083131.272910544,
        "Time(s)": 72
    },
    {
        "Altitude(m)": 705105.4157980842,
        "Argument of Periapsis(deg)": 0.00437620445591461,
        "Eccentricity": 0.0,
        "Inclination(deg)": 45.0,
        "Latitude(deg)": 34.777724918305736,
        "Longitude(deg)": -56.5919275151261,
        "Mean Anomaly(deg)": 53.52208323824262,
        "RAAN(deg)": -0.0041310090865730896,
        "Satellite Name": "Constellation 1 3",
        "Satellite Number": 3,
        "Semi-Major Axis(m)": 7083131.272910544,
        "Time(s)": 73
    },
    {
        "Altitude(m)": 705111.3740928666,
        "Argument of Periapsis(deg)": 0.004436152462160016,
        "Eccentricity": 0.0,
        "Inclination(deg)": 45.0,
        "Latitude(deg)": 34.8088695958323,
        "Longitude(deg)": -56.532608169757474,
        "Mean Anomaly(deg)": 53.582784378492526,
        "RAAN(deg)": -0.004187598252142584,
        "Satellite Name": "Constellation 1 3",
        "Satellite Number": 3,
        "Semi-Major Axis(m)": 7083131.272910544,
        "Time(s)": 74
    },
    {
        "Altitude(m)": 705117.331080803,
        "Argument of Periapsis(deg)": 0.0044961004684054215,
        "Eccentricity": 0.0,
        "Inclination(deg)": 45.0,
        "Latitude(deg)": 34.8399810382846,
        "Longitude(deg)": -56.47324097203867,
        "Mean Anomaly(deg)": 53.64348551874243,
        "RAAN(deg)": -0.004244187417712079,
        "Satellite Name": "Constellation 1 3",
        "Satellite Number": 3,
        "Semi-Major Axis(m)": 7083131.272910544,
        "Time(s)": 75
    }
]